STARLINK-11462 [DTC]
1 62412U 24249D   26092.83335647  .01606297  00000+0  89227-2 0  9994
2 62412  42.9997  22.0771 0006004 222.3703 305.0545 15.75981225  5973
